{"type": "FeatureCollection", "features": [ {"type": "Feature", "properties": {"norad_id": 44622, "name": "GAOFEN-10R", "group": "resource", "lat": 81.95165579532744, "lon": -162.36751376488345, "alt_km": 608.8121476550396, "timestamp": "2025-12-09T16:56:36.237896+00:00", "meta": {"OBJECT_NAME": "GAOFEN-10R", "OBJECT_ID": "2019-066A", "EPOCH": "2025-12-09T11:40:43.264704", "MEAN_MOTION": 14.82775151, "ECCENTRICITY": 0.0008026, "INCLINATION": 98.0276, "RA_OF_ASC_NODE": 290.9803, "ARG_OF_PERICENTER": 51.0452, "MEAN_ANOMALY": 309.1475, "EPHEMERIS_TYPE": 0, "CLASSIFICATION_TYPE": "U", "NORAD_CAT_ID": 44622, "ELEMENT_SET_NO": 999, "REV_AT_EPOCH": 33426, "BSTAR": 0.00036988, "MEAN_MOTION_DOT": 2.937e-05, "MEAN_MOTION_DDOT": 0}, "tle": {"line1": "1 44622U 19066A   25343.48661186  .00002937  00000+0  36988-3 0  9994", "line2": "2 44622  98.0276 290.9803 0008026  51.0452 309.1475 14.82775151334264"}}, "geometry": {"type": "Point", "coordinates": [-162.36751376488345, 81.95165579532744]}}, {"type": "Feature", "properties": {"norad_id": 44804, "name": "CARTOSAT-3", "group": "resource", "lat": -35.87758132454162, "lon": -142.1092280594118, "alt_km": 519.0448873742125, "timestamp": "2025-12-09T16:56:36.237907+00:00", "meta": {"OBJECT_NAME": "CARTOSAT-3", "OBJECT_ID": "2019-081A", "EPOCH": "2025-12-09T11:15:15.652224", "MEAN_MOTION": 15.19327942, "ECCENTRICITY": 0.0014004, "INCLINATION": 97.4582, "RA_OF_ASC_NODE": 43.0937, "ARG_OF_PERICENTER": 96.9889, "MEAN_ANOMALY": 263.2938, "EPHEMERIS_TYPE": 0, "CLASSIFICATION_TYPE": "U", "NORAD_CAT_ID": 44804, "ELEMENT_SET_NO": 999, "REV_AT_EPOCH": 33466, "BSTAR": 0.00032713, "MEAN_MOTION_DOT": 6.86e-05, "MEAN_MOTION_DDOT": 0}, "tle": {"line1": "1 44804U 19081A   25343.46893116  .00006860  00000+0  32713-3 0  9992", "line2": "2 44804  97.4582  43.0937 0014004  96.9889 263.2938 15.19327942334669"}}, "geometry": {"type": "Point", "coordinates": [-142.1092280594118, -35.87758132454162]}}, {"type": "Feature", "properties": {"norad_id": 44819, "name": "GAOFEN-12 01", "group": "resource", "lat": 20.448564687300944, "lon": -12.867904753895742, "alt_km": 627.7960082637455, "timestamp": "2025-12-09T16:56:36.237917+00:00", "meta": {"OBJECT_NAME": "GAOFEN-12 01", "OBJECT_ID": "2019-082A", "EPOCH": "2025-12-09T11:59:04.991712", "MEAN_MOTION": 14.80651976, "ECCENTRICITY": 0.0001199, "INCLINATION": 97.8127, "RA_OF_ASC_NODE": 349.8654, "ARG_OF_PERICENTER": 254.7265, "MEAN_ANOMALY": 105.3815, "EPHEMERIS_TYPE": 0, "CLASSIFICATION_TYPE": "U", "NORAD_CAT_ID": 44819, "ELEMENT_SET_NO": 999, "REV_AT_EPOCH": 32602, "BSTAR": 0.0001307, "MEAN_MOTION_DOT": 9.53e-06, "MEAN_MOTION_DDOT": 0}, "tle": {"line1": "1 44819U 19082A   25343.49936333  .00000953  00000+0  13070-3 0  9993", "line2": "2 44819  97.8127 349.8654 0001199 254.7265 105.3815 14.80651976326025"}}, "geometry": {"type": "Point", "coordinates": [-12.867904753895742, 20.448564687300944]}}, {"type": "Feature", "properties": {"norad_id": 44873, "name": "CSG-1", "group": "resource", "lat": 63.58231358332332, "lon": 1.2660246372940174, "alt_km": 615.4466319325456, "timestamp": "2025-12-09T16:56:36.237928+00:00", "meta": {"OBJECT_NAME": "CSG-1", "OBJECT_ID": "2019-092A", "EPOCH": "2025-12-09T11:33:52.622784", "MEAN_MOTION": 14.82157864, "ECCENTRICITY": 0.0001457, "INCLINATION": 97.8811, "RA_OF_ASC_NODE": 164.8551, "ARG_OF_PERICENTER": 85.4248, "MEAN_ANOMALY": 274.7132, "EPHEMERIS_TYPE": 0, "CLASSIFICATION_TYPE": "U", "NORAD_CAT_ID": 44873, "ELEMENT_SET_NO": 999, "REV_AT_EPOCH": 32337, "BSTAR": 0.00015588, "MEAN_MOTION_DOT": 1.189e-05, "MEAN_MOTION_DDOT": 0}, "tle": {"line1": "1 44873U 19092A   25343.48185906  .00001189  00000+0  15588-3 0  9993", "line2": "2 44873  97.8811 164.8551 0001457  85.4248 274.7132 14.82157864323370"}}, "geometry": {"type": "Point", "coordinates": [1.2660246372940174, 63.58231358332332]}}, {"type": "Feature", "properties": {"norad_id": 46277, "name": "NEMO-HD", "group": "resource", "lat": 0.24648867799092827, "lon": 42.81109692302709, "alt_km": 447.8023971414932, "timestamp": "2025-12-09T16:56:36.237938+00:00", "meta": {"OBJECT_NAME": "NEMO-HD", "OBJECT_ID": "2020-061F", "EPOCH": "2025-12-09T12:15:52.651584", "MEAN_MOTION": 15.4022141, "ECCENTRICITY": 0.0002075, "INCLINATION": 97.2211, "RA_OF_ASC_NODE": 42.6499, "ARG_OF_PERICENTER": 60.2486, "MEAN_ANOMALY": 299.8967, "EPHEMERIS_TYPE": 0, "CLASSIFICATION_TYPE": "U", "NORAD_CAT_ID": 46277, "ELEMENT_SET_NO": 999, "REV_AT_EPOCH": 29274, "BSTAR": 0.00036765, "MEAN_MOTION_DOT": 0.00014705, "MEAN_MOTION_DDOT": 0}, "tle": {"line1": "1 46277U 20061F   25343.51102606  .00014705  00000+0  36765-3 0  9999", "line2": "2 46277  97.2211  42.6499 0002075  60.2486 299.8967 15.40221410292748"}}, "geometry": {"type": "Point", "coordinates": [42.81109692302709, 0.24648867799092827]}}, {"type": "Feature", "properties": {"norad_id": 46984, "name": "SENTINEL-6A", "group": "resource", "lat": 26.50738041952279, "lon": -24.20328279101466, "alt_km": 1338.5749181387364, "timestamp": "2025-12-09T16:56:36.237949+00:00", "meta": {"OBJECT_NAME": "SENTINEL-6A", "OBJECT_ID": "2020-086A", "EPOCH": "2025-12-09T10:32:14.332992", "MEAN_MOTION": 12.80930517, "ECCENTRICITY": 0.0007737, "INCLINATION": 66.0391, "RA_OF_ASC_NODE": 169.164, "ARG_OF_PERICENTER": 269.2403, "MEAN_ANOMALY": 90.7726, "EPHEMERIS_TYPE": 0, "CLASSIFICATION_TYPE": "U", "NORAD_CAT_ID": 46984, "ELEMENT_SET_NO": 999, "REV_AT_EPOCH": 23602, "BSTAR": 6.2322e-05, "MEAN_MOTION_DOT": -4.7e-07, "MEAN_MOTION_DDOT": 0}, "tle": {"line1": "1 46984U 20086A   25343.43905478 -.00000047  00000+0  62322-4 0  9994", "line2": "2 46984  66.0391 169.1640 0007737 269.2403  90.7726 12.80930517236025"}}, "geometry": {"type": "Point", "coordinates": [-24.20328279101466, 26.50738041952279]}}, {"type": "Feature", "properties": {"norad_id": 48079, "name": "GAOFEN-12 02", "group": "resource", "lat": 31.322883134288947, "lon": -27.173230364722222, "alt_km": 624.8620047142513, "timestamp": "2025-12-09T16:56:36.237959+00:00", "meta": {"OBJECT_NAME": "GAOFEN-12 02", "OBJECT_ID": "2021-026A", "EPOCH": "2025-12-09T11:56:06.803808", "MEAN_MOTION": 14.80669576, "ECCENTRICITY": 0.0003469, "INCLINATION": 97.985, "RA_OF_ASC_NODE": 337.5194, "ARG_OF_PERICENTER": 107.4181, "MEAN_ANOMALY": 252.7411, "EPHEMERIS_TYPE": 0, "CLASSIFICATION_TYPE": "U", "NORAD_CAT_ID": 48079, "ELEMENT_SET_NO": 999, "REV_AT_EPOCH": 25369, "BSTAR": 0.00013428, "MEAN_MOTION_DOT": 9.79e-06, "MEAN_MOTION_DDOT": 0}, "tle": {"line1": "1 48079U 21026A   25343.49730097  .00000979  00000+0  13428-3 0  9990", "line2": "2 48079  97.9850 337.5194 0003469 107.4181 252.7411 14.80669576253693"}}, "geometry": {"type": "Point", "coordinates": [-27.173230364722222, 31.322883134288947]}}, {"type": "Feature", "properties": {"norad_id": 48268, "name": "PLEIADES NEO 3", "group": "resource", "lat": 81.8246332410511, "lon": -18.808790321445926, "alt_km": 615.6623770635897, "timestamp": "2025-12-09T16:56:36.237969+00:00", "meta": {"OBJECT_NAME": "PLEIADES NEO 3", "OBJECT_ID": "2021-034A", "EPOCH": "2025-12-08T17:51:26.688096", "MEAN_MOTION": 14.81674889, "ECCENTRICITY": 0.00013213, "INCLINATION": 97.8951, "RA_OF_ASC_NODE": 55.2426, "ARG_OF_PERICENTER": 96.866, "MEAN_ANOMALY": 263.2703, "EPHEMERIS_TYPE": 0, "CLASSIFICATION_TYPE": "U", "NORAD_CAT_ID": 48268, "ELEMENT_SET_NO": 999, "REV_AT_EPOCH": 24945, "BSTAR": 2.6372942e-05, "MEAN_MOTION_DOT": 1.55e-06, "MEAN_MOTION_DDOT": 0}, "tle": {"line1": "1 48268U 21034A   25342.74405889  .00000155  00000+0  26373-4 0  9994", "line2": "2 48268  97.8951  55.2426 0001321  96.8660 263.2703 14.81674889249458"}}, "geometry": {"type": "Point", "coordinates": [-18.808790321445926, 81.8246332410511]}}, {"type": "Feature", "properties": {"norad_id": 49070, "name": "PLEIADES NEO 4", "group": "resource", "lat": -81.84685230367226, "lon": 160.59304681298752, "alt_km": 632.3405456948622, "timestamp": "2025-12-09T16:56:36.237982+00:00", "meta": {"OBJECT_NAME": "PLEIADES NEO 4", "OBJECT_ID": "2021-073E", "EPOCH": "2025-12-09T12:29:45.667680", "MEAN_MOTION": 14.81679391, "ECCENTRICITY": 0.0001366, "INCLINATION": 97.8948, "RA_OF_ASC_NODE": 56.0038, "ARG_OF_PERICENTER": 89.6185, "MEAN_ANOMALY": 270.5184, "EPHEMERIS_TYPE": 0, "CLASSIFICATION_TYPE": "U", "NORAD_CAT_ID": 49070, "ELEMENT_SET_NO": 999, "REV_AT_EPOCH": 23328, "BSTAR": 7.3457e-05, "MEAN_MOTION_DOT": 5.26e-06, "MEAN_MOTION_DDOT": 0}, "tle": {"line1": "1 49070U 21073E   25343.52066745  .00000526  00000+0  73457-4 0  9997", "line2": "2 49070  97.8948  56.0038 0001366  89.6185 270.5184 14.81679391233286"}}, "geometry": {"type": "Point", "coordinates": [160.59304681298752, -81.84685230367226]}}, {"type": "Feature", "properties": {"norad_id": 49260, "name": "LANDSAT 9", "group": "resource", "lat": -12.475357887745353, "lon": -129.96944242042576, "alt_km": 707.0416507929267, "timestamp": "2025-12-09T16:56:36.237992+00:00", "meta": {"OBJECT_NAME": "LANDSAT 9", "OBJECT_ID": "2021-088A", "EPOCH": "2025-12-09T11:07:07.368672", "MEAN_MOTION": 14.57125619, "ECCENTRICITY": 0.0001116, "INCLINATION": 98.2098, "RA_OF_ASC_NODE": 51.6218, "ARG_OF_PERICENTER": 94.4742, "MEAN_ANOMALY": 265.6584, "EPHEMERIS_TYPE": 0, "CLASSIFICATION_TYPE": "U", "NORAD_CAT_ID": 49260, "ELEMENT_SET_NO": 999, "REV_AT_EPOCH": 22337, "BSTAR": 0.00019721, "MEAN_MOTION_DOT": 8.44e-06, "MEAN_MOTION_DDOT": 0}, "tle": {"line1": "1 49260U 21088A   25343.46327973  .00000844  00000+0  19721-3 0  9996", "line2": "2 49260  98.2098  51.6218 0001116  94.4742 265.6584 14.57125619223375"}}, "geometry": {"type": "Point", "coordinates": [-129.96944242042576, -12.475357887745353]}}]}